[{"OBJECT_NAME":"ORBCOMM FM110","OBJECT_ID":"2015-081D","EPOCH":"2026-03-09T10:51:08.828064","MEAN_MOTION":14.58735323,"ECCENTRICITY":0.00033965,"INCLINATION":47.0012,"RA_OF_ASC_NODE":112.9678,"ARG_OF_PERICENTER":317.5539,"MEAN_ANOMALY":42.5084,"EPHEMERIS_TYPE":0,"CLASSIFICATION_TYPE":"U","NORAD_CAT_ID":41182,"ELEMENT_SET_NO":999,"REV_AT_EPOCH":54306,"BSTAR":0.00025090546,"MEAN_MOTION_DOT":1.012e-5,"MEAN_MOTION_DDOT":0},{"OBJECT_NAME":"SL-16 DEB","OBJECT_ID":"1993-016BN","EPOCH":"2026-03-06T07:37:12.094176","MEAN_MOTION":14.44626777,"ECCENTRICITY":0.00751548,"INCLINATION":70.9482,"RA_OF_ASC_NODE":301.3586,"ARG_OF_PERICENTER":170.6602,"MEAN_ANOMALY":189.5955,"EPHEMERIS_TYPE":0,"CLASSIFICATION_TYPE":"U","NORAD_CAT_ID":39888,"ELEMENT_SET_NO":999,"REV_AT_EPOCH":60892,"BSTAR":0.0024565961,"MEAN_MOTION_DOT":8.769e-5,"MEAN_MOTION_DDOT":0}]
